[{"OBJECT_NAME":"GAOFEN-10R","OBJECT_ID":"2019-066A","EPOCH":"2026-03-09T23:14:29.289984","MEAN_MOTION":14.83155833,"ECCENTRICITY":0.00081973,"INCLINATION":98.0397,"RA_OF_ASC_NODE":21.897,"ARG_OF_PERICENTER":105.6349,"MEAN_ANOMALY":254.577,"EPHEMERIS_TYPE":0,"CLASSIFICATION_TYPE":"U","NORAD_CAT_ID":44622,"ELEMENT_SET_NO":999,"REV_AT_EPOCH":34767,"BSTAR":0.00026312767,"MEAN_MOTION_DOT":2.093e-5,"MEAN_MOTION_DDOT":0},{"OBJECT_NAME":"ARIANE 5 DEB [SYLDA]","OBJECT_ID":"2015-034D","EPOCH":"2026-03-09T23:18:48.958272","MEAN_MOTION":13.47402299,"ECCENTRICITY":0.12499591,"INCLINATION":3.8791,"RA_OF_ASC_NODE":64.6612,"ARG_OF_PERICENTER":201.0255,"MEAN_ANOMALY":153.3584,"EPHEMERIS_TYPE":0,"CLASSIFICATION_TYPE":"U","NORAD_CAT_ID":40735,"ELEMENT_SET_NO":999,"REV_AT_EPOCH":12318,"BSTAR":0.0051736353,"MEAN_MOTION_DOT":0.10375032,"MEAN_MOTION_DDOT":-2.0134112e-5}]
